DMSP 5D-3 F16 (USA 172) 
1 28054U 03048A   26125.93229222  .00000024  00000+0  36113-4 0  9994
2 28054  98.9920 149.4755 0005894 266.1210 142.0792 14.14478961163513
METEOSAT-9 (MSG-2)      
1 28912U 05049B   26125.84362171  .00000131  00000+0  00000+0 0  9991
2 28912   9.2674  54.5755 0000891  25.8122 132.8584  1.00279737  6576
DMSP 5D-3 F17 (USA 191) 
1 29522U 06050A   26125.95489368  .00000084  00000+0  65756-4 0  9993
2 29522  98.7391 133.3880 0010221 169.8760 190.2622 14.14985568  6456
FENGYUN 3A              
1 32958U 08026A   26125.82751876  .00000083  00000+0  59770-4 0  9995
2 32958  98.6865  67.4585 0007630 247.8840 112.1527 14.19562134929392
GOES 14                 
1 35491U 09033A   26125.84220103 -.00000084  00000+0  00000+0 0  9994
2 35491   1.5812  83.5278 0002020 330.9814 277.9609  1.00118267  6165
DMSP 5D-3 F18 (USA 210) 
1 35951U 09057A   26125.92330247  .00000263  00000+0  15947-3 0  9999
2 35951  98.9024 106.7899 0011444  17.2539 342.9021 14.14872270853618
EWS-G2 (GOES 15)        
1 36411U 10008A   26125.89308242  .00000030  00000+0  00000+0 0  9997
2 36411   1.1644  83.5993 0004635  25.1951 139.7727  1.00273739 59216
COMS 1                  
1 36744U 10032A   26125.73100631 -.00000336  00000+0  00000+0 0  9998
2 36744   4.6974  75.9168 0001187 337.2889 201.7062  1.00271515 50666
FENGYUN 3B              
1 37214U 10059A   26125.95120579 -.00000317  00000+0 -14051-3 0  9992
2 37214  98.9650 171.7788 0021227 308.5849 153.4986 14.14830459801459
SUOMI NPP               
1 37849U 11061A   26125.90779114  .00000078  00000+0  58209-4 0  9996
2 37849  98.7935  67.0781 0002857  86.6075 273.5428 14.19508221752443
METEOSAT-10 (MSG-3)     
1 38552U 12035B   26125.62057431  .00000002  00000+0  00000+0 0  9998
2 38552   4.5719  61.1979 0002126 325.1884  60.6077  1.00270296 50431
METOP-B                 
1 38771U 12049A   26125.88426413  .00000116  00000+0  72757-4 0  9993
2 38771  98.6535 178.2206 0003576 105.6200 254.5372 14.21436203707250
INSAT-3D                
1 39216U 13038B   26125.86017512 -.00000330  00000+0  00000+0 0  9997
2 39216   1.8171  83.0483 0001257 293.5619 286.3042  1.00273195 46651
FENGYUN 3C              
1 39260U 13052A   26125.92220223  .00000086  00000+0  64542-4 0  9997
2 39260  98.4959 101.7447 0015341 141.3350 218.8926 14.15745147652582
METEOR-M 2              
1 40069U 14037A   26125.91137608  .00000157  00000+0  91090-4 0  9990
2 40069  98.5096 103.1539 0006106 148.7750 211.3791 14.21450024613316
HIMAWARI-8              
1 40267U 14060A   26125.82222721 -.00000267  00000+0  00000+0 0  9996
2 40267   0.0178  44.9333 0001035  19.3914 236.0475  1.00272805 42333
FENGYUN 2G              
1 40367U 14090A   26125.90731623 -.00000294  00000+0  00000+0 0  9995
2 40367   5.5333  73.3148 0002618 136.0302  80.8423  1.00269561 41571
METEOSAT-11 (MSG-4)     
1 40732U 15034A   26125.76508084  .00000070  00000+0  00000+0 0  9998
2 40732   3.0964  71.3312 0001556 347.6621  89.4419  1.00266976  6797
ELEKTRO-L 2             
1 41105U 15074A   26125.68896190 -.00000109  00000+0  00000+0 0  9990
2 41105   6.5891  71.0363 0001947 271.1053 114.9163  1.00271278 38084
INSAT-3DR               
1 41752U 16054A   26125.87082152 -.00000069  00000+0  00000+0 0  9998
2 41752   0.1365  87.2623 0010980 193.8560 330.1255  1.00272717 35390
HIMAWARI-9              
1 41836U 16064A   26125.82222723 -.00000266  00000+0  00000+0 0  9996
2 41836   0.0355 137.2202 0001412 293.6205 229.6357  1.00273615 34780
GOES 16                 
1 41866U 16071A   26125.88504855 -.00000083  00000+0  00000+0 0  9999
2 41866   0.2345  85.6133 0001164 274.3970  77.6505  1.00272875 34673
FENGYUN 4A              
1 41882U 16077A   26125.71642883 -.00000348  00000+0  00000+0 0  9993
2 41882   2.2160  80.7168 0008113 144.0432  20.4724  1.00275228 34505
CYGFM05                 
1 41884U 16078A   26125.56977699  .00023042  00000+0  33380-3 0  9991
2 41884  34.9558 182.3838 0006864 115.4481 244.6953 15.54861028522116
CYGFM04                 
1 41885U 16078B   26125.47367503  .00029681  00000+0  36516-3 0  9998
2 41885  34.9314 152.7378 0006746 162.1689 197.9274 15.59187616522323
CYGFM02                 
1 41886U 16078C   26125.48365197  .00034086  00000+0  38163-3 0  9992
2 41886  34.9395 148.3179 0007909 162.4228 197.6772 15.61607124522488
CYGFM01                 
1 41887U 16078D   26125.57621741  .00023932  00000+0  33881-3 0  9993
2 41887  34.9390 183.7303 0006502 108.7278 251.4152 15.55480411522068
CYGFM08                 
1 41888U 16078E   26125.54064151  .00027319  00000+0  35334-3 0  9995
2 41888  34.9420 164.6022 0008301 140.7849 219.3478 15.57865426522315
CYGFM07                 
1 41890U 16078G   26125.43832309  .00034582  00000+0  44545-3 0  9998
2 41890  34.9436 153.6587 0007143 160.0804 200.0200 15.57950869522325
CYGFM03                 
1 41891U 16078H   26125.47331576  .00027343  00000+0  35276-3 0  9991
2 41891  34.9390 155.3780 0006215 149.1715 210.9375 15.57950186522300
FENGYUN 3D              
1 43010U 17072A   26125.86234241 -.00000339  00000+0 -13832-3 0  9997
2 43010  99.0109  99.5267 0001849 133.5305 226.6024 14.19728963438982
NOAA 20 (JPSS-1)        
1 43013U 17073A   26125.92109836  .00000081  00000+0  59190-4 0  9999
2 43013  98.7754  65.7636 0001928  59.7650 300.3716 14.19549730438477
GOES 17                 
1 43226U 18022A   26125.88808190 -.00000174  00000+0  00000+0 0  9999
2 43226   0.8298  86.2999 0000772 313.1349  54.5451  1.00272075 30000
FENGYUN 2H              
1 43491U 18050A   26125.87343356 -.00000122  00000+0  00000+0 0  9994
2 43491   2.9233  79.5502 0001264 144.2282  33.7557  1.00274553 29015
METOP-C                 
1 43689U 18087A   26125.76503948  .00000106  00000+0  68434-4 0  9997
2 43689  98.6668 186.1380 0000388  52.0462 308.0750 14.21500475388809
GEO-KOMPSAT-2A          
1 43823U 18100A   26125.67148282 -.00000336  00000+0  00000+0 0  9995
2 43823   0.0610  82.1410 0002311 350.8742 160.5372  1.00271668 27207
METEOR-M2 2             
1 44387U 19038A   26125.95630041 -.00000187  00000+0 -61244-4 0  9999
2 44387  98.9136 112.6230 0002062 112.6298 247.5098 14.24353122355283
ARKTIKA-M 1             
1 47719U 21016A   26125.12758485 -.00000163  00000+0  00000+0 0  9993
2 47719  63.2261  63.8552 7272154 269.7325  14.8784  2.00606244 37928
FENGYUN 3E              
1 49008U 21062A   26125.99194014  .00000002  00000+0  21689-4 0  9996
2 49008  98.7500 129.8701 0001340 165.0120 195.1096 14.19900456250594
GOES 18                 
1 51850U 22021A   26125.73604740  .00000105  00000+0  00000+0 0  9997
2 51850   0.0473  82.4312 0000627  14.7996 254.3628  1.00271222  6166
NOAA 21 (JPSS-2)        
1 54234U 22150A   26125.88481009  .00000070  00000+0  53753-4 0  9995
2 54234  98.7043  65.3889 0001307   0.5872 359.5306 14.19557754180540
METEOSAT-12 (MTG-I1)    
1 54743U 22170C   26125.90576196  .00000000  00000+0  00000+0 0  9992
2 54743   0.7340  23.7982 0001033   1.1613 164.5234  1.00271781 12554
TIANMU-1 03             
1 55973U 23039A   26125.93175867  .00016933  00000+0  34745-3 0  9995
2 55973  97.5227 298.2906 0002022 230.0178 130.0894 15.46107892174309
TIANMU-1 04             
1 55974U 23039B   26125.93693719  .00017734  00000+0  35689-3 0  9995
2 55974  97.5160 297.4486 0002696 227.4156 132.6866 15.46663317174310
TIANMU-1 05             
1 55975U 23039C   26125.78116921  .00017125  00000+0  35222-3 0  9991
2 55975  97.5205 297.7649 0001455 265.5657  94.5425 15.46036213174266
TIANMU-1 06             
1 55976U 23039D   26125.93795354  .00017307  00000+0  34931-3 0  9990
2 55976  97.5215 298.5216 0001847 254.2914 105.8131 15.46585593174319
FENGYUN 3G              
1 56232U 23055A   26125.71474491  .00025623  00000+0  41022-3 0  9995
2 56232  49.9919 205.1085 0006167   1.9994 358.0997 15.52882375173406
METEOR-M2 3             
1 57166U 23091A   26125.94104421  .00000007  00000+0  21964-4 0  9993
2 57166  98.6110 181.7767 0002846 302.0145  58.0757 14.24043183148504
TIANMU-1 07             
1 57399U 23101A   26125.90381130  .00007053  00000+0  25010-3 0  9996
2 57399  97.2619 177.5513 0000481 308.8584  51.2613 15.29384422155185
TIANMU-1 08             
1 57400U 23101B   26125.93656461  .00006669  00000+0  23640-3 0  9993
2 57400  97.2607 177.3586 0002129 257.8690 102.2312 15.29413281155184
TIANMU-1 09             
1 57401U 23101C   26125.92021940  .00007049  00000+0  24964-3 0  9994
2 57401  97.2565 176.7816 0001021 308.7524  51.3625 15.29425703155182
TIANMU-1 10             
1 57402U 23101D   26125.95270046  .00007364  00000+0  26039-3 0  9996
2 57402  97.2644 177.8203 0002286 284.9327  75.1660 15.29460892155184
FENGYUN 3F              
1 57490U 23111A   26125.90632412  .00000056  00000+0  46767-4 0  9990
2 57490  98.6846 196.6991 0001088 116.1421 243.9868 14.19931694142860
ARKTIKA-M 2             
1 58584U 23198A   26125.39019903  .00000157  00000+0  00000+0 0  9994
2 58584  63.2198 159.1310 6890928 267.5601  18.8207  2.00595097 17461
TIANMU-1 11             
1 58645U 23205A   26125.91107703  .00005431  00000+0  21018-3 0  9991
2 58645  97.3474 148.1413 0010091 144.7401 215.4507 15.26561430131077
TIANMU-1 12             
1 58646U 23205B   26125.94581145  .00005969  00000+0  23115-3 0  9997
2 58646  97.3461 147.9402 0008813 128.7963 231.4065 15.26512110131060
TIANMU-1 13             
1 58647U 23205C   26125.90920869  .00006164  00000+0  23815-3 0  9999
2 58647  97.3490 148.1686 0009369 114.0379 246.1841 15.26567615131050
TIANMU-1 14             
1 58648U 23205D   26125.76390965  .00006138  00000+0  23773-3 0  9996
2 58648  97.3426 147.2423 0009973 117.0007 243.2252 15.26480769131037
TIANMU-1 19             
1 58660U 23208A   26125.94083156  .00010085  00000+0  33969-3 0  9998
2 58660  97.4459 242.0587 0006449 105.1155 255.0800 15.30935818130865
TIANMU-1 20             
1 58661U 23208B   26125.94615404  .00010170  00000+0  32999-3 0  9993
2 58661  97.4400 242.6557 0008566 112.5561 247.6588 15.32125877130958
TIANMU-1 21             
1 58662U 23208C   26125.93122994  .00011932  00000+0  36089-3 0  9991
2 58662  97.4459 245.1432 0008535 107.0694 253.1485 15.34326413131089
TIANMU-1 22             
1 58663U 23208D   26125.90906542  .00008981  00000+0  30732-3 0  9997
2 58663  97.4453 241.9969 0005089 122.5266 237.6467 15.30465459130863
TIANMU-1 15             
1 58700U 24004A   26125.95705372  .00006621  00000+0  25560-3 0  9999
2 58700  97.4676 312.1521 0008220 130.5812 229.6144 15.26585421129333
TIANMU-1 16             
1 58701U 24004B   26125.80806345  .00006657  00000+0  25677-3 0  9994
2 58701  97.4621 311.2869 0006630 131.7239 228.4568 15.26620551129317
TIANMU-1 17             
1 58702U 24004C   26125.46528119  .00008284  00000+0  32029-3 0  9994
2 58702  97.4649 311.4144 0006433 137.1722 223.0019 15.26465359129252
TIANMU-1 18             
1 58703U 24004D   26125.90779248  .00005863  00000+0  22684-3 0  9991
2 58703  97.4667 312.0854 0005259 129.0008 231.1699 15.26578241129327
INSAT-3DS               
1 58990U 24033A   26125.90173547 -.00000148  00000+0  00000+0 0  9997
2 58990   0.1132  88.3701 0001968 314.1518 227.9468  1.00272181 46644
METEOR-M2 4             
1 59051U 24039A   26125.97815500  .00000033  00000+0  34489-4 0  9996
2 59051  98.6992  85.8139 0006052 297.1994  62.8566 14.22425131113264
GOES 19                 
1 60133U 24119A   26125.53439910 -.00000240  00000+0  00000+0 0  9995
2 60133   0.0002 301.3301 0000870 157.0712 242.2076  1.00272115  6532
FENGYUN 3H              
1 65815U 25219A   26125.83166903  .00000060  00000+0  48559-4 0  9996
2 65815  98.6751  67.4298 0001241 106.5430 253.5883 14.19912752 31375
